ION SCV-004             
1 50993U 22002K   26068.68892644  .00006538  00000+0  23198-3 0  9998
2 50993  97.2961 128.2294 0007216   1.6783 358.4480 15.29369331230088
STARLINK-30612          
1 58106U 23161K   26068.50022727  .00000050  00000+0  13796-4 0  9994
2 58106  53.1594 153.3961 0000947  86.5768 273.5341 15.30186035134574
